NORAD_CAT_ID,OBJECT_NAME,OBJECT_TYPE,EPOCH,MEAN_MOTION,ECCENTRICITY,INCLINATION,RA_OF_ASC_NODE,ARG_OF_PERICENTER,MEAN_ANOMALY,BSTAR,MEAN_MOTION_DOT,MEAN_MOTION_DDOT,TLE_LINE0,TLE_LINE1,TLE_LINE2,SEMIMAJOR_AXIS,PERIOD,APOGEE,PERIGEE,DECAYED
51714.0,STARLINK-3528,PAYLOAD,2023-01-18 12:41:18,15.0885335,0.0001885999999999,53.2172,74.4438,113.0587,247.0605,0.00050277,7.725e-05,0.0,0 STARLINK-3528,1 51714U 22016A   23018.52869207  .00007725  00000-0  50277-3 0  9997,2 51714  53.2172  74.4438 0001886 113.0587 247.0605 15.08853350 50397,6917.84,95.437,541.009,538.4,0.0
51714.0,STARLINK-3528,PAYLOAD,2023-01-18 20:38:14,15.088578,0.0001339,53.2164,72.9557,91.7932,268.3214,0.00086998,0.00013592,0.0,0 STARLINK-3528,1 51714U 22016A   23018.85989358  .00013592  00000-0  86998-3 0  9991,2 51714  53.2164  72.9557 0001339  91.7932 268.3214 15.08857800 50444,6917.826,95.436,540.617,538.765,0.0
51714.0,STARLINK-3528,PAYLOAD,2023-01-19 07:45:56,15.08851373,0.0001315,53.2164,70.878,89.7691,270.3452,0.00052201,8.032e-05,0.0,0 STARLINK-3528,1 51714U 22016A   23019.32357306  .00008032  00000-0  52201-3 0  9999,2 51714  53.2164  70.8780 0001315  89.7691 270.3452 15.08851373 51573,6917.846,95.437,540.62,538.8009999999999,0.0
51714.0,STARLINK-3528,PAYLOAD,2023-01-19 09:21:19,15.08855456,0.000137,53.2152,70.5785,98.4158,261.6989,0.00051118,7.859999999999999e-05,0.0,0 STARLINK-3528,1 51714U 22016A   23019.38980939  .00007860  00000-0  51118-3 0  9993,2 51714  53.2152  70.5785 0001370  98.4158 261.6989 15.08855456 50526,6917.8330000000005,95.437,540.646,538.75,0.0
51714.0,STARLINK-3528,PAYLOAD,2023-01-19 10:56:42,15.08864143,0.000122,53.2164,70.2792,105.7203,254.3924,0.00060295,9.327e-05,0.0,0 STARLINK-3528,1 51714U 22016A   23019.45604444  .00009327  00000-0  60295-3 0  9991,2 51714  53.2164  70.2792 0001220 105.7203 254.3924 15.08864143 51590,6917.807,95.436,540.516,538.828,0.0
51714.0,STARLINK-3528,PAYLOAD,2023-01-20 02:50:34,15.08838995,0.0001249,53.2162,67.3057,89.564,270.5495,-0.00027877,-4.722e-05,0.0,0 STARLINK-3528,1 51714U 22016A   23020.11844938 -.00004722  00000-0 -27877-3 0  9995,2 51714  53.2162  67.3057 0001249  89.5640 270.5495 15.08838995 51694,6917.883000000001,95.438,540.613,538.884,0.0
51714.0,STARLINK-3528,PAYLOAD,2023-01-20 09:12:06,15.08847089,0.0001281999999999,53.2157,66.116,90.8082,269.3057,-4.6118e-05,-1.022e-05,0.0,0 STARLINK-3528,1 51714U 22016A   23020.38340618 -.00001022  00000-0 -46118-4 0  9990,2 51714  53.2157  66.1160 0001282  90.8082 269.3057 15.08847089 51731,6917.859,95.437,540.611,538.837,0.0
51714.0,STARLINK-3528,PAYLOAD,2023-01-20 20:19:48,15.08828291,0.0001274999999999,53.2167,64.0362,87.0667,273.0471,-0.00013546,-2.442e-05,0.0,0 STARLINK-3528,1 51714U 22016A   23020.84709146 -.00002442  00000-0 -13546-3 0  9991,2 51714  53.2167  64.0362 0001275  87.0667 273.0471 15.08828291 51806,6917.916,95.438,540.663,538.899,0.0
51714.0,STARLINK-3528,PAYLOAD,2023-01-21 09:02:53,15.08859264,0.0001334,53.2157,61.6573,81.3743,278.7401,0.0013548,0.00021351,0.0,0 STARLINK-3528,1 51714U 22016A   23021.37701022  .00021351  00000-0  13548-2 0  9994,2 51714  53.2157  61.6573 0001334  81.3743 278.7401 15.08859264 51887,6917.821999999999,95.436,540.609,538.764,0.0
51714.0,STARLINK-3528,PAYLOAD,2023-01-21 12:13:39,15.08863439,0.0001334,53.2156,61.0622,82.8,277.3144,0.002508,0.00039879,0.0,0 STARLINK-3528,1 51714U 22016A   23021.50949042  .00039879  00000-0  25080-2 0  9993,2 51714  53.2156  61.0622 0001334  82.8000 277.3144 15.08863439 51908,6917.809,95.436,540.597,538.751,0.0
51714.0,STARLINK-3528,PAYLOAD,2023-01-22 08:53:40,15.08865755,0.0001137999999999,53.2159,57.1958,89.0216,271.0906,0.0020253,0.00032115,0.0,0 STARLINK-3528,1 51714U 22016A   23022.37060987  .00032115  00000-0  20253-2 0  9994,2 51714  53.2159  57.1958 0001138  89.0216 271.0906 15.08865755 52034,6917.802,95.436,540.4540000000001,538.879,0.0
51714.0,STARLINK-3528,PAYLOAD,2023-01-23 02:22:55,15.0884984,0.0001508,53.2159,53.9247,86.2341,273.8824,0.0025548,0.00040617,0.0,0 STARLINK-3528,1 51714U 22016A   23023.09925596  .00040617  00000-0  25548-2 0  9998,2 51714  53.2159  53.9247 0001508  86.2341 273.8824 15.08849840 52146,6917.85,95.437,540.759,538.672,0.0
51714.0,STARLINK-3528,PAYLOAD,2023-01-23 08:44:28,15.08835774,6.500000000000001e-05,53.2156,52.7344,113.3704,246.7356,0.0013331,0.0002099,0.0,0 STARLINK-3528,1 51714U 22016A   23023.36421469  .00020990  00000-0  13331-2 0  9997,2 51714  53.2156  52.7344 0000650 113.3704 246.7356 15.08835774 52184,6917.893,95.438,540.2080000000001,539.309,0.0
51714.0,STARLINK-3528,PAYLOAD,2023-01-23 18:16:47,15.08836693,0.0001217,53.2163,50.9507,105.5791,254.5335,0.00068198,0.00010581,0.0,0 STARLINK-3528,1 51714U 22016A   23023.76165727  .00010581  00000-0  68198-3 0  9990,2 51714  53.2163  50.9507 0001217 105.5791 254.5335 15.08836693 52244,6917.89,95.438,540.597,538.914,0.0
51714.0,STARLINK-3528,PAYLOAD,2023-01-24 18:07:34,15.08837953,0.0001361,53.2175,46.492,106.4113,253.7029,0.00012569,1.713e-05,0.0,0 STARLINK-3528,1 51714U 22016A   23024.75525933  .00001713  00000-0  12569-3 0  9997,2 51714  53.2175  46.4920 0001361 106.4113 253.7029 15.08837953 52391,6917.887,95.438,540.693,538.81,0.0
51714.0,STARLINK-3528,PAYLOAD,2023-01-25 08:26:02,15.08837744,0.0001258,53.2186,43.8152,108.3869,251.726,0.00014297,1.988e-05,0.0,0 STARLINK-3528,1 51714U 22016A   23025.35142218  .00001988  00000-0  14297-3 0  9999,2 51714  53.2186  43.8152 0001258 108.3869 251.7260 15.08837744 51421,6917.887,95.438,540.623,538.882,0.0
51714.0,STARLINK-3528,PAYLOAD,2023-01-26 08:16:49,15.08849539,0.0001027,53.2164,39.3532,97.9308,262.1801,0.00030247,4.531e-05,0.0,0 STARLINK-3528,1 51714U 22016A   23026.34501879  .00004531  00000-0  30247-3 0  9991,2 51714  53.2164  39.3532 0001027  97.9308 262.1801 15.08849539 52630,6917.851,95.437,540.427,539.006,0.0
51714.0,STARLINK-3528,PAYLOAD,2023-01-26 09:52:12,15.08851071,9.92e-05,53.2163,39.0558,91.1113,268.9993,0.0003941,5.992e-05,0.0,0 STARLINK-3528,1 51714U 22016A   23026.41125872  .00005992  00000-0  39410-3 0  9997,2 51714  53.2163  39.0558 0000992  91.1113 268.9993 15.08851071 51587,6917.847,95.437,540.398,539.025,0.0
51714.0,STARLINK-3528,PAYLOAD,2023-01-26 19:24:31,15.08844558,0.0001065999999999,53.2163,37.2715,88.0783,272.0331,0.00020556,2.986e-05,0.0,0 STARLINK-3528,1 51714U 22016A   23026.80870062  .00002986  00000-0  20556-3 0  9999,2 51714  53.2163  37.2715 0001066  88.0783 272.0331 15.08844558 52702,6917.866,95.437,540.469,538.994,0.0
51714.0,STARLINK-3528,PAYLOAD,2023-01-27 09:42:59,15.08846664,0.0001173,53.2165,34.595,96.6229,263.4897,0.00013826,1.914e-05,0.0,0 STARLINK-3528,1 51714U 22016A   23027.40485874  .00001914  00000-0  13826-3 0  9991,2 51714  53.2165  34.5950 0001173  96.6229 263.4897 15.08846664 51737,6917.86,95.437,540.536,538.914,0.0
51714.0,STARLINK-3528,PAYLOAD,2023-01-28 06:23:00,15.08840188,0.0001164,53.2172,30.7294,89.1503,270.9623,8.3054e-05,1.034e-05,0.0,0 STARLINK-3528,1 51714U 22016A   23028.26598249  .00001034  00000-0  83054-4 0  9991,2 51714  53.2172  30.7294 0001164  89.1503 270.9623 15.08840188 52923,6917.88,95.438,540.55,538.94,0.0
51714.0,STARLINK-3528,PAYLOAD,2023-01-28 09:33:47,15.088456,0.000116,53.217,30.1343,86.4725,273.64,0.00015329,2.153e-05,0.0,0 STARLINK-3528,1 51714U 22016A   23028.39846162  .00002153  00000-0  15329-3 0  9997,2 51714  53.2170  30.1343 0001160  86.4725 273.6400 15.08845600 51883,6917.863,95.437,540.531,538.926,0.0
51714.0,STARLINK-3528,PAYLOAD,2023-01-29 09:24:34,15.08847048,0.00012,53.2169,25.674,85.4779,274.635,0.0002249,3.294e-05,0.0,0 STARLINK-3528,1 51714U 22016A   23029.39206140  .00003294  00000-0  22490-3 0  9998,2 51714  53.2169  25.6740 0001200  85.4779 274.6350 15.08847048 53092,6917.859,95.437,540.554,538.894,0.0
51714.0,STARLINK-3528,PAYLOAD,2023-01-30 09:15:20,15.08851592,0.000127,53.2173,21.2141,82.7282,277.3855,0.00025576,3.786e-05,0.0,0 STARLINK-3528,1 51714U 22016A   23030.38565876  .00003786  00000-0  25576-3 0  9997,2 51714  53.2173  21.2141 0001270  82.7282 277.3855 15.08851592 52188,6917.845,95.437,540.589,538.831,0.0
51714.0,STARLINK-3528,PAYLOAD,2023-01-30 18:47:40,15.08840215,0.0001575,53.2162,19.4266,117.6439,242.4713,3.5768e-05,2.81e-06,0.0,0 STARLINK-3528,1 51714U 22016A   23030.78310190  .00000281  00000-0  35768-4 0  9990,2 51714  53.2162  19.4266 0001575 117.6439 242.4713 15.08840215 52246,6917.88,95.438,540.834,538.655,0.0
51714.0,STARLINK-3528,PAYLOAD,2023-01-30 23:33:50,15.08818994,0.0001549,53.2163,18.535,105.6547,254.4616,0.0005051,7.755e-05,0.0,0 STARLINK-3528,1 51714U 22016A   23030.98183330  .00007755  00000-0  50510-3 0  9990,2 51714  53.2163  18.5350 0001549 105.6547 254.4616 15.08818994 53334,6917.945,95.439,540.881,538.738,0.0
51714.0,STARLINK-3528,PAYLOAD,2023-01-31 05:55:21,15.08844471,0.0001227,53.217,17.3488,89.4255,270.6878,2.4684e-05,1.05e-06,0.0,0 STARLINK-3528,1 51714U 22016A   23031.24678156  .00000105  00000-0  24684-4 0  9991,2 51714  53.2170  17.3488 0001227  89.4255 270.6878 15.08844471 53372,6917.867,95.437,540.581,538.883,0.0
51714.0,STARLINK-3528,PAYLOAD,2023-01-31 20:13:50,15.08839627,0.0001229,53.2169,14.6725,92.3596,267.7537,7.5822e-05,9.19e-06,0.0,0 STARLINK-3528,1 51714U 22016A   23031.84294411  .00000919  00000-0  75822-4 0  9998,2 51714  53.2169  14.6725 0001229  92.3596 267.7537 15.08839627 52406,6917.882,95.438,540.597,538.896,0.0
51714.0,STARLINK-3528,PAYLOAD,2023-02-01 08:56:54,15.08850617,0.0001252,53.2169,12.2933,92.8009,267.3127,0.00018108,2.596e-05,0.0,0 STARLINK-3528,1 51714U 22016A   23032.37285801  .00002596  00000-0  18108-3 0  9996,2 51714  53.2169  12.2933 0001252  92.8009 267.3127 15.08850617 53540,6917.848,95.437,540.579,538.847,0.0
51714.0,STARLINK-3528,PAYLOAD,2023-02-02 02:26:10,15.08835918,0.0001215,53.2165,9.021,88.3312,271.7819,7.0518e-05,8.35e-06,0.0,0 STARLINK-3528,1 51714U 22016A   23033.10150735  .00000835  00000-0  70518-4 0  9993,2 51714  53.2165   9.0210 0001215  88.3312 271.7819 15.08835918 53650,6917.893,95.438,540.598,538.917,0.0
